{
  "type": "FeatureCollection",
  "features": [
    {
      "type": "Feature",
      "properties": {
        "norad_id": 30182,
        "name": "FENGYUN 1C DEB",
        "group": "fengyun-1c-debris",
        "lat": -14.749078727826383,
        "lon": -147.97446578153432,
        "alt_km": 963.1063773121223,
        "timestamp": "2025-12-09T09:46:47.920142+00:00",
        "meta_object_name": "FENGYUN 1C DEB",
        "meta_object_id": "1999-025UP",
        "meta_epoch": "2025-12-08T09:03:56.155392",
        "meta_mean_motion": 13.96454414,
        "meta_eccentricity": 0.00753165,
        "meta_inclination": 99.0664,
        "meta_ra_of_asc_node": 33.4204,
        "meta_arg_of_pericenter": 34.6727,
        "meta_mean_anomaly": 25.8434,
        "meta_ephemeris_type": 0,
        "meta_classification_type": "U",
        "meta_norad_cat_id": 30182,
        "meta_element_set_no": 999,
        "meta_rev_at_epoch": 96247,
        "meta_bstar": 0.00041427641,
        "meta_mean_motion_dot": 5.42e-06,
        "meta_mean_motion_ddot": 0,
        "tle_line1": "1 30182U 99025UP  25342.37773328  .00000542  00000+0  41428-3 0  9997",
        "tle_line2": "2 30182  99.0664  33.4204 0075316  34.6727  25.8434 13.96454414962472"
      },
      "geometry": {
        "type": "Point",
        "coordinates": [
          -147.97446578153432,
          -14.749078727826383
        ]
      }
    },
    {
      "type": "Feature",
      "properties": {
        "norad_id": 30183,
        "name": "FENGYUN 1C DEB",
        "group": "fengyun-1c-debris",
        "lat": 16.81929618281977,
        "lon": -151.61050545650926,
        "alt_km": 854.014210522686,
        "timestamp": "2025-12-09T09:46:47.920153+00:00",
        "meta_object_name": "FENGYUN 1C DEB",
        "meta_object_id": "1999-025UQ",
        "meta_epoch": "2025-12-08T16:37:13.204416",
        "meta_mean_motion": 14.12651106,
        "meta_eccentricity": 0.00258206,
        "meta_inclination": 98.789,
        "meta_ra_of_asc_node": 25.0076,
        "meta_arg_of_pericenter": 264.9934,
        "meta_mean_anomaly": 224.1021,
        "meta_ephemeris_type": 0,
        "meta_classification_type": "U",
        "meta_norad_cat_id": 30183,
        "meta_element_set_no": 999,
        "meta_rev_at_epoch": 97086,
        "meta_bstar": 0.00096615165,
        "meta_mean_motion_dot": 1.752e-05,
        "meta_mean_motion_ddot": 0,
        "tle_line1": "1 30183U 99025UQ  25342.69251394  .00001752  00000+0  96615-3 0  9999",
        "tle_line2": "2 30183  98.7890  25.0076 0025820 264.9934 224.1021 14.12651106970861"
      },
      "geometry": {
        "type": "Point",
        "coordinates": [
          -151.61050545650926,
          16.81929618281977
        ]
      }
    },
    {
      "type": "Feature",
      "properties": {
        "norad_id": 30191,
        "name": "FENGYUN 1C DEB",
        "group": "fengyun-1c-debris",
        "lat": 25.004077401488217,
        "lon": 50.16001207417831,
        "alt_km": 659.4062955567479,
        "timestamp": "2025-12-09T09:46:47.920164+00:00",
        "meta_object_name": "FENGYUN 1C DEB",
        "meta_object_id": "1999-025UY",
        "meta_epoch": "2025-12-08T17:57:53.714304",
        "meta_mean_motion": 14.77894326,
        "meta_eccentricity": 0.00972557,
        "meta_inclination": 98.7758,
        "meta_ra_of_asc_node": 53.5744,
        "meta_arg_of_pericenter": 276.1952,
        "meta_mean_anomaly": 204.3021,
        "meta_ephemeris_type": 0,
        "meta_classification_type": "U",
        "meta_norad_cat_id": 30191,
        "meta_element_set_no": 999,
        "meta_rev_at_epoch": 216,
        "meta_bstar": 0.0016354302,
        "meta_mean_motion_dot": 0.00012689,
        "meta_mean_motion_ddot": 0,
        "tle_line1": "1 30191U 99025UY  25342.74853836  .00012689  00000+0  16354-2 0  9995",
        "tle_line2": "2 30191  98.7758  53.5744 0097255 276.1952 204.3021 14.77894326  2160"
      },
      "geometry": {
        "type": "Point",
        "coordinates": [
          50.16001207417831,
          25.004077401488217
        ]
      }
    },
    {
      "type": "Feature",
      "properties": {
        "norad_id": 30193,
        "name": "FENGYUN 1C DEB",
        "group": "fengyun-1c-debris",
        "lat": 79.52840991696289,
        "lon": -165.00648757411437,
        "alt_km": 681.2347446124631,
        "timestamp": "2025-12-09T09:46:47.920175+00:00",
        "meta_object_name": "FENGYUN 1C DEB",
        "meta_object_id": "1999-025VA",
        "meta_epoch": "2025-12-08T17:04:04.939392",
        "meta_mean_motion": 14.49088144,
        "meta_eccentricity": 0.01070286,
        "meta_inclination": 98.756,
        "meta_ra_of_asc_node": 250.7705,
        "meta_arg_of_pericenter": 145.1738,
        "meta_mean_anomaly": 269.6558,
        "meta_ephemeris_type": 0,
        "meta_classification_type": "U",
        "meta_norad_cat_id": 30193,
        "meta_element_set_no": 999,
        "meta_rev_at_epoch": 99108,
        "meta_bstar": 0.0011555154,
        "meta_mean_motion_dot": 4.673e-05,
        "meta_mean_motion_ddot": 0,
        "tle_line1": "1 30193U 99025VA  25342.71116828  .00004673  00000+0  11555-2 0  9999",
        "tle_line2": "2 30193  98.7560 250.7705 0107028 145.1738 269.6558 14.49088144991087"
      },
      "geometry": {
        "type": "Point",
        "coordinates": [
          -165.00648757411437,
          79.52840991696289
        ]
      }
    },
    {
      "type": "Feature",
      "properties": {
        "norad_id": 30196,
        "name": "FENGYUN 1C DEB",
        "group": "fengyun-1c-debris",
        "lat": 27.183658703833952,
        "lon": -99.61515120107835,
        "alt_km": 792.736596439322,
        "timestamp": "2025-12-09T09:46:47.920186+00:00",
        "meta_object_name": "FENGYUN 1C DEB",
        "meta_object_id": "1999-025VD",
        "meta_epoch": "2025-12-08T20:08:14.788320",
        "meta_mean_motion": 14.25846238,
        "meta_eccentricity": 0.00870332,
        "meta_inclination": 98.6405,
        "meta_ra_of_asc_node": 75.3456,
        "meta_arg_of_pericenter": 74.4012,
        "meta_mean_anomaly": 40.8292,
        "meta_ephemeris_type": 0,
        "meta_classification_type": "U",
        "meta_norad_cat_id": 30196,
        "meta_element_set_no": 999,
        "meta_rev_at_epoch": 98309,
        "meta_bstar": 0.00012095027,
        "meta_mean_motion_dot": 2.56e-06,
        "meta_mean_motion_ddot": 0,
        "tle_line1": "1 30196U 99025VD  25342.83906005  .00000256  00000+0  12095-3 0  9993",
        "tle_line2": "2 30196  98.6405  75.3456 0087033  74.4012  40.8292 14.25846238983099"
      },
      "geometry": {
        "type": "Point",
        "coordinates": [
          -99.61515120107835,
          27.183658703833952
        ]
      }
    },
    {
      "type": "Feature",
      "properties": {
        "norad_id": 30197,
        "name": "FENGYUN 1C DEB",
        "group": "fengyun-1c-debris",
        "lat": -39.63533669006435,
        "lon": 81.14536872911889,
        "alt_km": 733.7748984018481,
        "timestamp": "2025-12-09T09:46:47.920197+00:00",
        "meta_object_name": "FENGYUN 1C DEB",
        "meta_object_id": "1999-025VE",
        "meta_epoch": "2025-12-08T18:02:46.680288",
        "meta_mean_motion": 14.3716508,
        "meta_eccentricity": 0.00569017,
        "meta_inclination": 98.9379,
        "meta_ra_of_asc_node": 267.9548,
        "meta_arg_of_pericenter": 226.6387,
        "meta_mean_anomaly": 203.6766,
        "meta_ephemeris_type": 0,
        "meta_classification_type": "U",
        "meta_norad_cat_id": 30197,
        "meta_element_set_no": 999,
        "meta_rev_at_epoch": 98429,
        "meta_bstar": 0.0014661856,
        "meta_mean_motion_dot": 4.397e-05,
        "meta_mean_motion_ddot": 0,
        "tle_line1": "1 30197U 99025VE  25342.75192917  .00004397  00000+0  14662-2 0  9995",
        "tle_line2": "2 30197  98.9379 267.9548 0056901 226.6387 203.6766 14.37165080984290"
      },
      "geometry": {
        "type": "Point",
        "coordinates": [
          81.14536872911889,
          -39.63533669006435
        ]
      }
    },
    {
      "type": "Feature",
      "properties": {
        "norad_id": 30198,
        "name": "FENGYUN 1C DEB",
        "group": "fengyun-1c-debris",
        "lat": 15.916258452360644,
        "lon": 112.0085546138942,
        "alt_km": 799.7117206531875,
        "timestamp": "2025-12-09T09:46:47.920208+00:00",
        "meta_object_name": "FENGYUN 1C DEB",
        "meta_object_id": "1999-025VF",
        "meta_epoch": "2025-12-08T15:33:38.545920",
        "meta_mean_motion": 14.50244036,
        "meta_eccentricity": 0.0107006,
        "meta_inclination": 98.4488,
        "meta_ra_of_asc_node": 113.6763,
        "meta_arg_of_pericenter": 210.7458,
        "meta_mean_anomaly": 164.128,
        "meta_ephemeris_type": 0,
        "meta_classification_type": "U",
        "meta_norad_cat_id": 30198,
        "meta_element_set_no": 999,
        "meta_rev_at_epoch": 98448,
        "meta_bstar": 0.0031716,
        "meta_mean_motion_dot": 0.00013262,
        "meta_mean_motion_ddot": 0,
        "tle_line1": "1 30198U 99025VF  25342.64836280  .00013262  00000+0  31716-2 0  9992",
        "tle_line2": "2 30198  98.4488 113.6763 0107006 210.7458 164.1280 14.50244036984486"
      },
      "geometry": {
        "type": "Point",
        "coordinates": [
          112.0085546138942,
          15.916258452360644
        ]
      }
    }
  ]
}